{
  "type": "FeatureCollection",
  "features": [
    {
      "type": "Feature",
      "properties": {
        "norad_id": 67012,
        "name": "STARLINK-36175",
        "group": "last-30-days",
        "lat": -66.66611875497063,
        "lon": -114.78544333202747,
        "alt_km": 297.8148970187458,
        "timestamp": "2025-12-19T22:41:51.099382+00:00",
        "meta_object_name": "STARLINK-36175",
        "meta_object_id": "2025-293K",
        "meta_epoch": "2025-12-19T18:00:00.998784",
        "meta_mean_motion": 15.93497415,
        "meta_eccentricity": 0.0003908,
        "meta_inclination": 69.9941,
        "meta_ra_of_asc_node": 303.4187,
        "meta_arg_of_pericenter": 264.5249,
        "meta_mean_anomaly": 335.4674,
        "meta_ephemeris_type": 0,
        "meta_classification_type": "U",
        "meta_norad_cat_id": 67012,
        "meta_element_set_no": 999,
        "meta_rev_at_epoch": 130,
        "meta_bstar": -0.0030086,
        "meta_mean_motion_dot": -0.01079005,
        "meta_mean_motion_ddot": 0.00035309,
        "tle_line1": "1 67012U 25293K   25353.75001156 -.01079005  35309-3 -30086-2 0  9996",
        "tle_line2": "2 67012  69.9941 303.4187 0003908 264.5249 335.4674 15.93497415  1308"
      },
      "geometry": {
        "type": "Point",
        "coordinates": [
          -114.78544333202747,
          -66.66611875497063
        ]
      }
    },
    {
      "type": "Feature",
      "properties": {
        "norad_id": 67013,
        "name": "STARLINK-35856",
        "group": "last-30-days",
        "lat": -65.31735153488013,
        "lon": -109.60187154224239,
        "alt_km": 297.7454283943207,
        "timestamp": "2025-12-19T22:41:51.099392+00:00",
        "meta_object_name": "STARLINK-35856",
        "meta_object_id": "2025-293L",
        "meta_epoch": "2025-12-19T18:00:00.998784",
        "meta_mean_motion": 15.93553682,
        "meta_eccentricity": 0.000385,
        "meta_inclination": 69.9939,
        "meta_ra_of_asc_node": 303.4165,
        "meta_arg_of_pericenter": 262.7584,
        "meta_mean_anomaly": 339.6998,
        "meta_ephemeris_type": 0,
        "meta_classification_type": "U",
        "meta_norad_cat_id": 67013,
        "meta_element_set_no": 999,
        "meta_rev_at_epoch": 130,
        "meta_bstar": -0.0029942,
        "meta_mean_motion_dot": -0.01077011,
        "meta_mean_motion_ddot": 0.00035209,
        "tle_line1": "1 67013U 25293L   25353.75001156 -.01077011  35209-3 -29942-2 0  9990",
        "tle_line2": "2 67013  69.9939 303.4165 0003850 262.7584 339.6998 15.93553682  1304"
      },
      "geometry": {
        "type": "Point",
        "coordinates": [
          -109.60187154224239,
          -65.31735153488013
        ]
      }
    },
    {
      "type": "Feature",
      "properties": {
        "norad_id": 67014,
        "name": "STARLINK-36207",
        "group": "last-30-days",
        "lat": -63.91688860161759,
        "lon": -105.25362722487634,
        "alt_km": 297.49583502009955,
        "timestamp": "2025-12-19T22:41:51.099402+00:00",
        "meta_object_name": "STARLINK-36207",
        "meta_object_id": "2025-293M",
        "meta_epoch": "2025-12-19T18:00:00.998784",
        "meta_mean_motion": 15.93615797,
        "meta_eccentricity": 0.0003923,
        "meta_inclination": 69.9944,
        "meta_ra_of_asc_node": 303.4139,
        "meta_arg_of_pericenter": 266.3658,
        "meta_mean_anomaly": 338.3871,
        "meta_ephemeris_type": 0,
        "meta_classification_type": "U",
        "meta_norad_cat_id": 67014,
        "meta_element_set_no": 999,
        "meta_rev_at_epoch": 130,
        "meta_bstar": -0.0030061,
        "meta_mean_motion_dot": -0.01084812,
        "meta_mean_motion_ddot": 0.00035704,
        "tle_line1": "1 67014U 25293M   25353.75001156 -.01084812  35704-3 -30061-2 0  9992",
        "tle_line2": "2 67014  69.9944 303.4139 0003923 266.3658 338.3871 15.93615797  1307"
      },
      "geometry": {
        "type": "Point",
        "coordinates": [
          -105.25362722487634,
          -63.91688860161759
        ]
      }
    },
    {
      "type": "Feature",
      "properties": {
        "norad_id": 67015,
        "name": "STARLINK-36093",
        "group": "last-30-days",
        "lat": -60.81381217458457,
        "lon": -97.87735689535579,
        "alt_km": 297.28515801644244,
        "timestamp": "2025-12-19T22:41:51.099412+00:00",
        "meta_object_name": "STARLINK-36093",
        "meta_object_id": "2025-293N",
        "meta_epoch": "2025-12-19T18:00:00.998784",
        "meta_mean_motion": 15.93728826,
        "meta_eccentricity": 0.0003943,
        "meta_inclination": 69.9941,
        "meta_ra_of_asc_node": 303.4082,
        "meta_arg_of_pericenter": 263.2601,
        "meta_mean_anomaly": 346.0346,
        "meta_ephemeris_type": 0,
        "meta_classification_type": "U",
        "meta_norad_cat_id": 67015,
        "meta_element_set_no": 999,
        "meta_rev_at_epoch": 130,
        "meta_bstar": -0.0030112,
        "meta_mean_motion_dot": -0.01093036,
        "meta_mean_motion_ddot": 0.00036247,
        "tle_line1": "1 67015U 25293N   25353.75001156 -.01093036  36247-3 -30112-2 0  9991",
        "tle_line2": "2 67015  69.9941 303.4082 0003943 263.2601 346.0346 15.93728826  1309"
      },
      "geometry": {
        "type": "Point",
        "coordinates": [
          -97.87735689535579,
          -60.81381217458457
        ]
      }
    },
    {
      "type": "Feature",
      "properties": {
        "norad_id": 67016,
        "name": "STARLINK-36120",
        "group": "last-30-days",
        "lat": -62.51082822247659,
        "lon": -101.60483600987713,
        "alt_km": 297.44342993336795,
        "timestamp": "2025-12-19T22:41:51.099422+00:00",
        "meta_object_name": "STARLINK-36120",
        "meta_object_id": "2025-293P",
        "meta_epoch": "2025-12-19T18:00:00.998784",
        "meta_mean_motion": 15.93668256,
        "meta_eccentricity": 0.0003904,
        "meta_inclination": 69.9942,
        "meta_ra_of_asc_node": 303.4112,
        "meta_arg_of_pericenter": 263.3673,
        "meta_mean_anomaly": 343.5143,
        "meta_ephemeris_type": 0,
        "meta_classification_type": "U",
        "meta_norad_cat_id": 67016,
        "meta_element_set_no": 999,
        "meta_rev_at_epoch": 130,
        "meta_bstar": -0.0030103,
        "meta_mean_motion_dot": -0.01089259,
        "meta_mean_motion_ddot": 0.00035994,
        "tle_line1": "1 67016U 25293P   25353.75001156 -.01089259  35994-3 -30103-2 0  9992",
        "tle_line2": "2 67016  69.9942 303.4112 0003904 263.3673 343.5143 15.93668256  1309"
      },
      "geometry": {
        "type": "Point",
        "coordinates": [
          -101.60483600987713,
          -62.51082822247659
        ]
      }
    },
    {
      "type": "Feature",
      "properties": {
        "norad_id": 67017,
        "name": "STARLINK-35498",
        "group": "last-30-days",
        "lat": -59.15216750420158,
        "lon": -94.75868601192242,
        "alt_km": 297.112508381264,
        "timestamp": "2025-12-19T22:41:51.099432+00:00",
        "meta_object_name": "STARLINK-35498",
        "meta_object_id": "2025-293Q",
        "meta_epoch": "2025-12-19T18:00:00.998784",
        "meta_mean_motion": 15.93787989,
        "meta_eccentricity": 0.0003957,
        "meta_inclination": 69.9937,
        "meta_ra_of_asc_node": 303.4055,
        "meta_arg_of_pericenter": 264.6067,
        "meta_mean_anomaly": 346.931,
        "meta_ephemeris_type": 0,
        "meta_classification_type": "U",
        "meta_norad_cat_id": 67017,
        "meta_element_set_no": 999,
        "meta_rev_at_epoch": 143,
        "meta_bstar": -0.0030186,
        "meta_mean_motion_dot": -0.01099098,
        "meta_mean_motion_ddot": 0.00036641,
        "tle_line1": "1 67017U 25293Q   25353.75001156 -.01099098  36641-3 -30186-2 0  9996",
        "tle_line2": "2 67017  69.9937 303.4055 0003957 264.6067 346.9310 15.93787989  1431"
      },
      "geometry": {
        "type": "Point",
        "coordinates": [
          -94.75868601192242,
          -59.15216750420158
        ]
      }
    },
    {
      "type": "Feature",
      "properties": {
        "norad_id": 67018,
        "name": "STARLINK-36106",
        "group": "last-30-days",
        "lat": -57.40690147360926,
        "lon": -91.90997132619479,
        "alt_km": 296.9288335358051,
        "timestamp": "2025-12-19T22:41:51.099443+00:00",
        "meta_object_name": "STARLINK-36106",
        "meta_object_id": "2025-293R",
        "meta_epoch": "2025-12-19T18:00:00.998784",
        "meta_mean_motion": 15.93851853,
        "meta_eccentricity": 0.0003981,
        "meta_inclination": 69.9937,
        "meta_ra_of_asc_node": 303.4025,
        "meta_arg_of_pericenter": 265.737,
        "meta_mean_anomaly": 348.0616,
        "meta_ephemeris_type": 0,
        "meta_classification_type": "U",
        "meta_norad_cat_id": 67018,
        "meta_element_set_no": 999,
        "meta_rev_at_epoch": 135,
        "meta_bstar": -0.0030399,
        "meta_mean_motion_dot": -0.01110491,
        "meta_mean_motion_ddot": 0.0003737,
        "tle_line1": "1 67018U 25293R   25353.75001156 -.01110491  37370-3 -30399-2 0  9994",
        "tle_line2": "2 67018  69.9937 303.4025 0003981 265.7370 348.0616 15.93851853  1350"
      },
      "geometry": {
        "type": "Point",
        "coordinates": [
          -91.90997132619479,
          -57.40690147360926
        ]
      }
    }
  ]
}